[{"OBJECT_NAME":"STARLINK-30569","OBJECT_ID":"2023-158T","EPOCH":"2026-03-09T22:00:01.999584","MEAN_MOTION":15.15005129,"ECCENTRICITY":0.00022494,"INCLINATION":42.9997,"RA_OF_ASC_NODE":28.3107,"ARG_OF_PERICENTER":271.6745,"MEAN_ANOMALY":126.7361,"EPHEMERIS_TYPE":0,"CLASSIFICATION_TYPE":"U","NORAD_CAT_ID":58068,"ELEMENT_SET_NO":999,"REV_AT_EPOCH":558,"BSTAR":0.0041706163,"MEAN_MOTION_DOT":0.00079957,"MEAN_MOTION_DDOT":0},{"OBJECT_NAME":"PTD-4 (LISA-T)","OBJECT_ID":"2024-149DB","EPOCH":"2026-03-09T16:01:41.648160","MEAN_MOTION":15.17820166,"ECCENTRICITY":0.00028752,"INCLINATION":97.6982,"RA_OF_ASC_NODE":155.5534,"ARG_OF_PERICENTER":46.4623,"MEAN_ANOMALY":313.6849,"EPHEMERIS_TYPE":0,"CLASSIFICATION_TYPE":"U","NORAD_CAT_ID":60565,"ELEMENT_SET_NO":999,"REV_AT_EPOCH":8570,"BSTAR":0.0011421385,"MEAN_MOTION_DOT":0.0002309,"MEAN_MOTION_DDOT":0}]
